ALOS (DAICHI)           
1 28931U 06002A   23321.43585718  .00001332  00000+0  25874-3 0  9990
2 28931  98.0094 274.5865 0002399  92.1234 268.0244 14.64754166949828
